COSMOS 2242             
1 22626U 93024A   26065.56024866  .00002619  00000+0  22768-3 0  9997
2 22626  82.5152 269.7106 0015381 320.1636  39.8456 14.96533027779922
SL-16 R/B               
1 22803U 93059B   26065.58307256 -.00000122  00000+0 -36334-4 0  9995
2 22803  70.9924  17.6765 0018686 220.9951 138.9769 14.17232139679094
ARIANE 40 R/B           
1 22830U 93061H   26065.41653912  .00000282  00000+0  11926-3 0  9997
2 22830  98.4922 134.3686 0009610 295.8804  64.1389 14.32859034693631
COSMOS 2278             
1 23087U 94023A   26065.55659720  .00000237  00000+0  14823-3 0  9998
2 23087  71.0547 181.6513 0007809  19.4739 340.6680 14.14377500644360
SL-16 R/B               
1 23088U 94023B   26065.39239032 -.00000182  00000+0 -69389-4 0  9990
2 23088  70.9986  77.8125 0005696 288.8436  71.2068 14.15012969645622
SL-16 R/B               
1 23343U 94074B   26065.07212141  .00000576  00000+0  83904-4 0  9991
2 23343  97.7113  96.0363 0005534 224.3544 189.8306 14.79402724686716
ARIANE 40+ R/B          
1 23561U 95021B   26065.47137890  .00000415  00000+0  14611-3 0  9997
2 23561  98.4504 136.9976 0007503 145.0719 226.0996 14.39769828618783
SL-16 R/B               
1 23705U 95058B   26065.38213492  .00000158  00000+0  10512-3 0  9990
2 23705  71.0214 187.1984 0010942 131.6757 228.5304 14.15493388567387
SL-16 R/B               
1 24298U 96051B   26065.55411808  .00000115  00000+0  88750-4 0  9995
2 24298  70.7599 181.8749 0015351 152.7851 207.4077 14.12414681521205
ORBVIEW 2 (SEASTAR)     
1 24883U 97037A   26065.35099855  .00000460  00000+0  17607-3 0  9997
2 24883  98.8561 229.5744 0003147  78.6422 281.5116 14.35492202507997
