CCSDS_OMM_VERS = 2.0
CREATION_DATE  = 
ORIGINATOR     = 

OBJECT_NAME    = COSMOS 2242
OBJECT_ID      = 1993-024A
CENTER_NAME    = EARTH
REF_FRAME      = TEME
TIME_SYSTEM    = UTC
MEAN_ELEMENT_THEORY = SGP/SGP4

EPOCH          = 2026-03-06T13:26:45.484224
MEAN_MOTION    = 14.96533027
ECCENTRICITY   = .00153811
INCLINATION    = 82.5152
RA_OF_ASC_NODE = 269.7106
ARG_OF_PERICENTER = 320.1636
MEAN_ANOMALY   = 39.8456

EPHEMERIS_TYPE = 0
CLASSIFICATION_TYPE = U
NORAD_CAT_ID   = 22626
ELEMENT_SET_NO = 999
REV_AT_EPOCH   = 77992
BSTAR          = .22768402E-3
MEAN_MOTION_DOT = .2619E-4
MEAN_MOTION_DDOT = 0

CCSDS_OMM_VERS = 2.0
CREATION_DATE  = 
ORIGINATOR     = 

OBJECT_NAME    = SL-16 R/B
OBJECT_ID      = 1993-059B
CENTER_NAME    = EARTH
REF_FRAME      = TEME
TIME_SYSTEM    = UTC
MEAN_ELEMENT_THEORY = SGP/SGP4

EPOCH          = 2026-03-06T13:59:37.469184
MEAN_MOTION    = 14.17232139
ECCENTRICITY   = .00186866
INCLINATION    = 70.9924
RA_OF_ASC_NODE = 17.6765
ARG_OF_PERICENTER = 220.9951
MEAN_ANOMALY   = 138.9769

EPHEMERIS_TYPE = 0
CLASSIFICATION_TYPE = U
NORAD_CAT_ID   = 22803
ELEMENT_SET_NO = 999
REV_AT_EPOCH   = 67909
BSTAR          = -.36333729E-4
MEAN_MOTION_DOT = -.122E-5
MEAN_MOTION_DDOT = 0

CCSDS_OMM_VERS = 2.0
CREATION_DATE  = 
ORIGINATOR     = 

OBJECT_NAME    = ARIANE 40 R/B
OBJECT_ID      = 1993-061H
CENTER_NAME    = EARTH
REF_FRAME      = TEME
TIME_SYSTEM    = UTC
MEAN_ELEMENT_THEORY = SGP/SGP4

EPOCH          = 2026-03-06T09:59:48.979968
MEAN_MOTION    = 14.32859034
ECCENTRICITY   = .00096101
INCLINATION    = 98.4922
RA_OF_ASC_NODE = 134.3686
ARG_OF_PERICENTER = 295.8804
MEAN_ANOMALY   = 64.1389

EPHEMERIS_TYPE = 0
CLASSIFICATION_TYPE = U
NORAD_CAT_ID   = 22830
ELEMENT_SET_NO = 999
REV_AT_EPOCH   = 69363
BSTAR          = .11925986E-3
MEAN_MOTION_DOT = .282E-5
MEAN_MOTION_DDOT = 0

CCSDS_OMM_VERS = 2.0
CREATION_DATE  = 
ORIGINATOR     = 

OBJECT_NAME    = COSMOS 2278
OBJECT_ID      = 1994-023A
CENTER_NAME    = EARTH
REF_FRAME      = TEME
TIME_SYSTEM    = UTC
MEAN_ELEMENT_THEORY = SGP/SGP4

EPOCH          = 2026-03-06T13:21:29.998080
MEAN_MOTION    = 14.14377500
ECCENTRICITY   = .00078096
INCLINATION    = 71.0547
RA_OF_ASC_NODE = 181.6513
ARG_OF_PERICENTER = 19.4739
MEAN_ANOMALY   = 340.6680

EPHEMERIS_TYPE = 0
CLASSIFICATION_TYPE = U
NORAD_CAT_ID   = 23087
ELEMENT_SET_NO = 999
REV_AT_EPOCH   = 64436
BSTAR          = .1482273E-3
MEAN_MOTION_DOT = .237E-5
MEAN_MOTION_DDOT = 0

CCSDS_OMM_VERS = 2.0
CREATION_DATE  = 
ORIGINATOR     = 

OBJECT_NAME    = SL-16 R/B
OBJECT_ID      = 1994-023B
CENTER_NAME    = EARTH
REF_FRAME      = TEME
TIME_SYSTEM    = UTC
MEAN_ELEMENT_THEORY = SGP/SGP4

EPOCH          = 2026-03-06T09:25:02.523648
MEAN_MOTION    = 14.15012969
ECCENTRICITY   = .00056961
INCLINATION    = 70.9986
RA_OF_ASC_NODE = 77.8125
ARG_OF_PERICENTER = 288.8436
MEAN_ANOMALY   = 71.2068

EPHEMERIS_TYPE = 0
CLASSIFICATION_TYPE = U
NORAD_CAT_ID   = 23088
ELEMENT_SET_NO = 999
REV_AT_EPOCH   = 64562
BSTAR          = -.69389134E-4
MEAN_MOTION_DOT = -.182E-5
MEAN_MOTION_DDOT = 0

CCSDS_OMM_VERS = 2.0
CREATION_DATE  = 
ORIGINATOR     = 

OBJECT_NAME    = SL-16 R/B
OBJECT_ID      = 1994-074B
CENTER_NAME    = EARTH
REF_FRAME      = TEME
TIME_SYSTEM    = UTC
MEAN_ELEMENT_THEORY = SGP/SGP4

EPOCH          = 2026-03-06T01:43:51.289824
MEAN_MOTION    = 14.79402724
ECCENTRICITY   = .00055341
INCLINATION    = 97.7113
RA_OF_ASC_NODE = 96.0363
ARG_OF_PERICENTER = 224.3544
MEAN_ANOMALY   = 189.8306

EPHEMERIS_TYPE = 0
CLASSIFICATION_TYPE = U
NORAD_CAT_ID   = 23343
ELEMENT_SET_NO = 999
REV_AT_EPOCH   = 68671
BSTAR          = .83904168E-4
MEAN_MOTION_DOT = .576E-5
MEAN_MOTION_DDOT = 0

CCSDS_OMM_VERS = 2.0
CREATION_DATE  = 
ORIGINATOR     = 

OBJECT_NAME    = ARIANE 40+ R/B
OBJECT_ID      = 1995-021B
CENTER_NAME    = EARTH
REF_FRAME      = TEME
TIME_SYSTEM    = UTC
MEAN_ELEMENT_THEORY = SGP/SGP4

EPOCH          = 2026-03-06T11:18:47.136960
MEAN_MOTION    = 14.39769828
ECCENTRICITY   = .0007503
INCLINATION    = 98.4504
RA_OF_ASC_NODE = 136.9976
ARG_OF_PERICENTER = 145.0719
MEAN_ANOMALY   = 226.0996

EPHEMERIS_TYPE = 0
CLASSIFICATION_TYPE = U
NORAD_CAT_ID   = 23561
ELEMENT_SET_NO = 999
REV_AT_EPOCH   = 61878
BSTAR          = .14610956E-3
MEAN_MOTION_DOT = .415E-5
MEAN_MOTION_DDOT = 0

CCSDS_OMM_VERS = 2.0
CREATION_DATE  = 
ORIGINATOR     = 

OBJECT_NAME    = SL-16 R/B
OBJECT_ID      = 1995-058B
CENTER_NAME    = EARTH
REF_FRAME      = TEME
TIME_SYSTEM    = UTC
MEAN_ELEMENT_THEORY = SGP/SGP4

EPOCH          = 2026-03-06T09:10:16.457088
MEAN_MOTION    = 14.15493388
ECCENTRICITY   = .00109424
INCLINATION    = 71.0214
RA_OF_ASC_NODE = 187.1984
ARG_OF_PERICENTER = 131.6757
MEAN_ANOMALY   = 228.5304

EPHEMERIS_TYPE = 0
CLASSIFICATION_TYPE = U
NORAD_CAT_ID   = 23705
ELEMENT_SET_NO = 999
REV_AT_EPOCH   = 56738
BSTAR          = .10511608E-3
MEAN_MOTION_DOT = .158E-5
MEAN_MOTION_DDOT = 0

CCSDS_OMM_VERS = 2.0
CREATION_DATE  = 
ORIGINATOR     = 

OBJECT_NAME    = SL-16 R/B
OBJECT_ID      = 1996-051B
CENTER_NAME    = EARTH
REF_FRAME      = TEME
TIME_SYSTEM    = UTC
MEAN_ELEMENT_THEORY = SGP/SGP4

EPOCH          = 2026-03-06T13:17:55.802112
MEAN_MOTION    = 14.12414681
ECCENTRICITY   = .00153516
INCLINATION    = 70.7599
RA_OF_ASC_NODE = 181.8749
ARG_OF_PERICENTER = 152.7851
MEAN_ANOMALY   = 207.4077

EPHEMERIS_TYPE = 0
CLASSIFICATION_TYPE = U
NORAD_CAT_ID   = 24298
ELEMENT_SET_NO = 999
REV_AT_EPOCH   = 52120
BSTAR          = .88749892E-4
MEAN_MOTION_DOT = .115E-5
MEAN_MOTION_DDOT = 0

CCSDS_OMM_VERS = 2.0
CREATION_DATE  = 
ORIGINATOR     = 

OBJECT_NAME    = ORBVIEW 2 (SEASTAR)
OBJECT_ID      = 1997-037A
CENTER_NAME    = EARTH
REF_FRAME      = TEME
TIME_SYSTEM    = UTC
MEAN_ELEMENT_THEORY = SGP/SGP4

EPOCH          = 2026-03-06T08:25:26.274720
MEAN_MOTION    = 14.35492202
ECCENTRICITY   = .00031479
INCLINATION    = 98.8561
RA_OF_ASC_NODE = 229.5744
ARG_OF_PERICENTER = 78.6422
MEAN_ANOMALY   = 281.5116

EPHEMERIS_TYPE = 0
CLASSIFICATION_TYPE = U
NORAD_CAT_ID   = 24883
ELEMENT_SET_NO = 999
REV_AT_EPOCH   = 50799
BSTAR          = .17606875E-3
MEAN_MOTION_DOT = .46E-5
MEAN_MOTION_DDOT = 0

